[{"OBJECT_NAME":"STARLINK-31177","OBJECT_ID":"2024-019W","EPOCH":"2026-03-09T13:06:55.401984","MEAN_MOTION":15.2757515,"ECCENTRICITY":0.0001111,"INCLINATION":43.0012,"RA_OF_ASC_NODE":249.4546,"ARG_OF_PERICENTER":231.4726,"MEAN_ANOMALY":128.6026,"EPHEMERIS_TYPE":0,"CLASSIFICATION_TYPE":"U","NORAD_CAT_ID":58873,"ELEMENT_SET_NO":999,"REV_AT_EPOCH":11906,"BSTAR":3.6328e-5,"MEAN_MOTION_DOT":7.38e-6,"MEAN_MOTION_DDOT":0},{"OBJECT_NAME":"239ALFEROV (RS61S)","OBJECT_ID":"2025-155F","EPOCH":"2026-03-09T21:46:33.382848","MEAN_MOTION":15.29933217,"ECCENTRICITY":0.00084878,"INCLINATION":97.4469,"RA_OF_ASC_NODE":37.6373,"ARG_OF_PERICENTER":151.5904,"MEAN_ANOMALY":208.58,"EPHEMERIS_TYPE":0,"CLASSIFICATION_TYPE":"U","NORAD_CAT_ID":64881,"ELEMENT_SET_NO":999,"REV_AT_EPOCH":6561,"BSTAR":0.00067233359,"MEAN_MOTION_DOT":0.00019457,"MEAN_MOTION_DDOT":0}]
